ORBCOMM FM20 [+]        
1 25416U 98046D   23327.47304144  .00001374  00000+0  53101-3 0  9996
2 25416  44.9963   2.8288 0002475 255.8669 104.1903 14.34620751322099
ORBCOMM FM16 [-]        
1 25417U 98046E   23327.88117988  .00002089  00000+0  76981-3 0  9995
2 25417  44.9958 357.7893 0005716 290.4025  69.6208 14.35378388322078
ORBCOMM FM15 [-]        
1 25418U 98046F   23327.11128880  .00001840  00000+0  68755-3 0  9999
2 25418  44.9995   5.1057 0005127 287.1804  72.8482 14.35127161321979
ORBCOMM FM14 [-]        
1 25419U 98046G   23327.15754326  .00001959  00000+0  72686-3 0  9993
2 25419  44.9985   4.1947 0004277 275.1752 111.5406 14.35249940321933
ORBCOMM FM13 [+]        
1 25420U 98046H   23327.12206495  .00001519  00000+0  58120-3 0  9990
2 25420  44.9997   8.3813 0006388 277.2699  82.7421 14.34672851321008
ORBCOMM FM21 [-]        
1 25475U 98053A   23327.34831489  .00001700  00000+0  64472-3 0  9998
2 25475  45.0088  91.4477 0001751 213.3048 146.7689 14.34681907315055
ORBCOMM FM22 [-]        
1 25476U 98053B   23327.37969824  .00001891  00000+0  70590-3 0  9996
2 25476  45.0087  89.1835 0003505 222.8905 137.1669 14.35070669315042
ORBCOMM FM23 [-]        
1 25477U 98053C   23327.37857921  .00001828  00000+0  68973-3 0  9993
2 25477  45.0090  93.7533 0002763 218.0839 141.9813 14.34664891315208
